{"type": "FeatureCollection", "features": [ {"type": "Feature", "properties": {"norad_id": 31226, "name": "FENGYUN 1C DEB", "group": "fengyun-1c-debris", "lat": -22.383367500990513, "lon": -16.904116716576702, "alt_km": 852.6893384824998, "timestamp": "2025-12-05T11:32:56.299747+00:00", "meta": {"OBJECT_NAME": "FENGYUN 1C DEB", "OBJECT_ID": "1999-025BLG", "EPOCH": "2025-12-03T17:34:33.337056", "MEAN_MOTION": 14.26664209, "ECCENTRICITY": 0.01263169, "INCLINATION": 98.3498, "RA_OF_ASC_NODE": 337.9593, "ARG_OF_PERICENTER": 222.6449, "MEAN_ANOMALY": 136.4874, "EPHEMERIS_TYPE": 0, "CLASSIFICATION_TYPE": "U", "NORAD_CAT_ID": 31226, "ELEMENT_SET_NO": 999, "REV_AT_EPOCH": 61925, "BSTAR": 0.00052832093, "MEAN_MOTION_DOT": 1.347e-05, "MEAN_MOTION_DDOT": 0}, "tle": {"line1": "1 31226U 99025BLG 25337.73233029  .00001347  00000+0  52832-3 0  9995", "line2": "2 31226  98.3498 337.9593 0126316 222.6449 136.4874 14.26664209619250"}}, "geometry": {"type": "Point", "coordinates": [-16.904116716576702, -22.383367500990513]}}, {"type": "Feature", "properties": {"norad_id": 31228, "name": "FENGYUN 1C DEB", "group": "fengyun-1c-debris", "lat": 59.70577260910215, "lon": -124.42287440977901, "alt_km": 723.5549873448035, "timestamp": "2025-12-05T11:32:56.299757+00:00", "meta": {"OBJECT_NAME": "FENGYUN 1C DEB", "OBJECT_ID": "1999-025BLJ", "EPOCH": "2025-12-04T17:01:27.663744", "MEAN_MOTION": 14.36882199, "ECCENTRICITY": 0.0079098, "INCLINATION": 98.8688, "RA_OF_ASC_NODE": 250.2835, "ARG_OF_PERICENTER": 109.356, "MEAN_ANOMALY": 281.8764, "EPHEMERIS_TYPE": 0, "CLASSIFICATION_TYPE": "U", "NORAD_CAT_ID": 31228, "ELEMENT_SET_NO": 999, "REV_AT_EPOCH": 97454, "BSTAR": 0.0010598, "MEAN_MOTION_DOT": 3.203e-05, "MEAN_MOTION_DDOT": 0}, "tle": {"line1": "1 31228U 99025BLJ 25338.70934796  .00003203  00000+0  10598-2 0  9999", "line2": "2 31228  98.8688 250.2835 0079098 109.3560 281.8764 14.36882199974543"}}, "geometry": {"type": "Point", "coordinates": [-124.42287440977901, 59.70577260910215]}}, {"type": "Feature", "properties": {"norad_id": 31229, "name": "FENGYUN 1C DEB", "group": "fengyun-1c-debris", "lat": -70.15131678791512, "lon": -150.87338165766687, "alt_km": 811.3224632269366, "timestamp": "2025-12-05T11:32:56.299768+00:00", "meta": {"OBJECT_NAME": "FENGYUN 1C DEB", "OBJECT_ID": "1999-025BLK", "EPOCH": "2025-12-02T21:33:26.156160", "MEAN_MOTION": 14.21721225, "ECCENTRICITY": 0.00524397, "INCLINATION": 98.8685, "RA_OF_ASC_NODE": 52.159, "ARG_OF_PERICENTER": 325.7559, "MEAN_ANOMALY": 34.024, "EPHEMERIS_TYPE": 0, "CLASSIFICATION_TYPE": "U", "NORAD_CAT_ID": 31229, "ELEMENT_SET_NO": 999, "REV_AT_EPOCH": 95944, "BSTAR": 0.0016946422, "MEAN_MOTION_DOT": 3.733e-05, "MEAN_MOTION_DDOT": 0}, "tle": {"line1": "1 31229U 99025BLK 25336.89821940  .00003733  00000+0  16946-2 0  9995", "line2": "2 31229  98.8685  52.1590 0052439 325.7559  34.0240 14.21721225959445"}}, "geometry": {"type": "Point", "coordinates": [-150.87338165766687, -70.15131678791512]}}, {"type": "Feature", "properties": {"norad_id": 31231, "name": "FENGYUN 1C DEB", "group": "fengyun-1c-debris", "lat": -49.631968970971705, "lon": 148.5032155754592, "alt_km": 756.133578254854, "timestamp": "2025-12-05T11:32:56.299778+00:00", "meta": {"OBJECT_NAME": "FENGYUN 1C DEB", "OBJECT_ID": "1999-025BLM", "EPOCH": "2025-12-03T04:25:17.802048", "MEAN_MOTION": 14.74747924, "ECCENTRICITY": 0.0148073, "INCLINATION": 98.8603, "RA_OF_ASC_NODE": 135.4173, "ARG_OF_PERICENTER": 136.6139, "MEAN_ANOMALY": 224.6836, "EPHEMERIS_TYPE": 0, "CLASSIFICATION_TYPE": "U", "NORAD_CAT_ID": 31231, "ELEMENT_SET_NO": 999, "REV_AT_EPOCH": 62880, "BSTAR": 0.0045464, "MEAN_MOTION_DOT": 0.00036415, "MEAN_MOTION_DDOT": 0}, "tle": {"line1": "1 31231U 99025BLM 25337.18423382  .00036415  00000+0  45464-2 0  9999", "line2": "2 31231  98.8603 135.4173 0148073 136.6139 224.6836 14.74747924628806"}}, "geometry": {"type": "Point", "coordinates": [148.5032155754592, -49.631968970971705]}}, {"type": "Feature", "properties": {"norad_id": 31234, "name": "FENGYUN 1C DEB", "group": "fengyun-1c-debris", "lat": -36.732275504423534, "lon": 147.05461520907411, "alt_km": 826.8642065346712, "timestamp": "2025-12-05T11:32:56.299788+00:00", "meta": {"OBJECT_NAME": "FENGYUN 1C DEB", "OBJECT_ID": "1999-025BLQ", "EPOCH": "2025-12-03T05:38:41.279136", "MEAN_MOTION": 14.08001275, "ECCENTRICITY": 0.0072936, "INCLINATION": 98.7845, "RA_OF_ASC_NODE": 331.4953, "ARG_OF_PERICENTER": 253.9693, "MEAN_ANOMALY": 105.3435, "EPHEMERIS_TYPE": 0, "CLASSIFICATION_TYPE": "U", "NORAD_CAT_ID": 31234, "ELEMENT_SET_NO": 999, "REV_AT_EPOCH": 72586, "BSTAR": 0.0003221, "MEAN_MOTION_DOT": 5.18e-06, "MEAN_MOTION_DDOT": 0}, "tle": {"line1": "1 31234U 99025BLQ 25337.23519999  .00000518  00000+0  32210-3 0  9999", "line2": "2 31234  98.7845 331.4953 0072936 253.9693 105.3435 14.08001275725865"}}, "geometry": {"type": "Point", "coordinates": [147.05461520907411, -36.732275504423534]}}, {"type": "Feature", "properties": {"norad_id": 31235, "name": "FENGYUN 1C DEB", "group": "fengyun-1c-debris", "lat": -73.12993152376752, "lon": 157.51021273733986, "alt_km": 898.7947258231334, "timestamp": "2025-12-05T11:32:56.299798+00:00", "meta": {"OBJECT_NAME": "FENGYUN 1C DEB", "OBJECT_ID": "1999-025BLR", "EPOCH": "2025-12-02T16:11:02.663232", "MEAN_MOTION": 14.18412346, "ECCENTRICITY": 0.01800212, "INCLINATION": 98.4719, "RA_OF_ASC_NODE": 125.3899, "ARG_OF_PERICENTER": 51.7016, "MEAN_ANOMALY": 310.0196, "EPHEMERIS_TYPE": 0, "CLASSIFICATION_TYPE": "U", "NORAD_CAT_ID": 31235, "ELEMENT_SET_NO": 999, "REV_AT_EPOCH": 63024, "BSTAR": 0.0030847823, "MEAN_MOTION_DOT": 7.441e-05, "MEAN_MOTION_DDOT": 0}, "tle": {"line1": "1 31235U 99025BLR 25336.67433638  .00007441  00000+0  30848-2 0  9998", "line2": "2 31235  98.4719 125.3899 0180021  51.7016 310.0196 14.18412346630242"}}, "geometry": {"type": "Point", "coordinates": [157.51021273733986, -73.12993152376752]}}, {"type": "Feature", "properties": {"norad_id": 31236, "name": "FENGYUN 1C DEB", "group": "fengyun-1c-debris", "lat": -66.63000711080515, "lon": -44.31005161839911, "alt_km": 1108.9500421986813, "timestamp": "2025-12-05T11:32:56.299808+00:00", "meta": {"OBJECT_NAME": "FENGYUN 1C DEB", "OBJECT_ID": "1999-025BLS", "EPOCH": "2025-12-03T07:53:25.598400", "MEAN_MOTION": 13.85599249, "ECCENTRICITY": 0.0314237, "INCLINATION": 98.5451, "RA_OF_ASC_NODE": 293.3621, "ARG_OF_PERICENTER": 72.3659, "MEAN_ANOMALY": 291.1553, "EPHEMERIS_TYPE": 0, "CLASSIFICATION_TYPE": "U", "NORAD_CAT_ID": 31236, "ELEMENT_SET_NO": 999, "REV_AT_EPOCH": 60894, "BSTAR": 0.0055596, "MEAN_MOTION_DOT": 9.321e-05, "MEAN_MOTION_DDOT": 0}, "tle": {"line1": "1 31236U 99025BLS 25337.32876850  .00009321  00000+0  55596-2 0  9995", "line2": "2 31236  98.5451 293.3621 0314237  72.3659 291.1553 13.85599249608945"}}, "geometry": {"type": "Point", "coordinates": [-44.31005161839911, -66.63000711080515]}}, {"type": "Feature", "properties": {"norad_id": 31237, "name": "FENGYUN 1C DEB", "group": "fengyun-1c-debris", "lat": 65.04947729043539, "lon": 177.17787234499693, "alt_km": 794.8437492876983, "timestamp": "2025-12-05T11:32:56.299818+00:00", "meta": {"OBJECT_NAME": "FENGYUN 1C DEB", "OBJECT_ID": "1999-025BLT", "EPOCH": "2025-12-04T06:30:19.334304", "MEAN_MOTION": 14.31346037, "ECCENTRICITY": 0.0089488, "INCLINATION": 98.4533, "RA_OF_ASC_NODE": 337.359, "ARG_OF_PERICENTER": 13.9849, "MEAN_ANOMALY": 346.3782, "EPHEMERIS_TYPE": 0, "CLASSIFICATION_TYPE": "U", "NORAD_CAT_ID": 31237, "ELEMENT_SET_NO": 999, "REV_AT_EPOCH": 97145, "BSTAR": 0.0010459, "MEAN_MOTION_DOT": 2.853e-05, "MEAN_MOTION_DDOT": 0}, "tle": {"line1": "1 31237U 99025BLT 25338.27105711  .00002853  00000+0  10459-2 0  9994", "line2": "2 31237  98.4533 337.3590 0089488  13.9849 346.3782 14.31346037971452"}}, "geometry": {"type": "Point", "coordinates": [177.17787234499693, 65.04947729043539]}}, {"type": "Feature", "properties": {"norad_id": 31239, "name": "FENGYUN 1C DEB", "group": "fengyun-1c-debris", "lat": 32.870852777580694, "lon": 160.33443485566335, "alt_km": 846.9004009453656, "timestamp": "2025-12-05T11:32:56.299828+00:00", "meta": {"OBJECT_NAME": "FENGYUN 1C DEB", "OBJECT_ID": "1999-025BLV", "EPOCH": "2025-12-04T11:43:58.692000", "MEAN_MOTION": 14.0984529, "ECCENTRICITY": 0.0048959, "INCLINATION": 98.7582, "RA_OF_ASC_NODE": 333.6516, "ARG_OF_PERICENTER": 221.6957, "MEAN_ANOMALY": 291.7078, "EPHEMERIS_TYPE": 0, "CLASSIFICATION_TYPE": "U", "NORAD_CAT_ID": 31239, "ELEMENT_SET_NO": 999, "REV_AT_EPOCH": 95895, "BSTAR": 0.00059713, "MEAN_MOTION_DOT": 1.019e-05, "MEAN_MOTION_DDOT": 0}, "tle": {"line1": "1 31239U 99025BLV 25338.48887375  .00001019  00000+0  59713-3 0  9992", "line2": "2 31239  98.7582 333.6516 0048959 221.6957 291.7078 14.09845290958955"}}, "geometry": {"type": "Point", "coordinates": [160.33443485566335, 32.870852777580694]}}, {"type": "Feature", "properties": {"norad_id": 31241, "name": "FENGYUN 1C DEB", "group": "fengyun-1c-debris", "lat": 52.194829586455235, "lon": -42.14431881195191, "alt_km": 745.7524993494135, "timestamp": "2025-12-05T11:32:56.299838+00:00", "meta": {"OBJECT_NAME": "FENGYUN 1C DEB", "OBJECT_ID": "1999-025BLX", "EPOCH": "2025-12-04T16:35:45.443616", "MEAN_MOTION": 14.38642671, "ECCENTRICITY": 0.0066664, "INCLINATION": 99.2339, "RA_OF_ASC_NODE": 124.9029, "ARG_OF_PERICENTER": 204.4614, "MEAN_ANOMALY": 155.3403, "EPHEMERIS_TYPE": 0, "CLASSIFICATION_TYPE": "U", "NORAD_CAT_ID": 31241, "ELEMENT_SET_NO": 999, "REV_AT_EPOCH": 97575, "BSTAR": 0.0014361, "MEAN_MOTION_DOT": 4.467e-05, "MEAN_MOTION_DDOT": 0}, "tle": {"line1": "1 31241U 99025BLX 25338.69149819  .00004467  00000+0  14361-2 0  9991", "line2": "2 31241  99.2339 124.9029 0066664 204.4614 155.3403 14.38642671975750"}}, "geometry": {"type": "Point", "coordinates": [-42.14431881195191, 52.194829586455235]}}]}